{
  "links" : {
    "next" : "https://api.nasa.gov/neo/rest/v1/feed?start_date=2011-02-09&end_date=2011-02-09&detailed=true&api_key=t0TVs3DtDT2H8Oy2Zy8m2eVrNsAVKAexjcZXUckd",
    "prev" : "https://api.nasa.gov/neo/rest/v1/feed?start_date=2011-02-07&end_date=2011-02-07&detailed=true&api_key=t0TVs3DtDT2H8Oy2Zy8m2eVrNsAVKAexjcZXUckd",
    "self" : "https://api.nasa.gov/neo/rest/v1/feed?start_date=2011-02-08&end_date=2011-02-08&detailed=true&api_key=t0TVs3DtDT2H8Oy2Zy8m2eVrNsAVKAexjcZXUckd"
  },
  "element_count" : 8,
  "near_earth_objects" : {
    "2011-02-08" : [ {
      "links" : {
        "self" : "https://api.nasa.gov/neo/rest/v1/neo/3367899?api_key=t0TVs3DtDT2H8Oy2Zy8m2eVrNsAVKAexjcZXUckd"
      },
      "neo_reference_id" : "3367899",
      "name" : "(2007 CL26)",
      "nasa_jpl_url" : "http://ssd.jpl.nasa.gov/sbdb.cgi?sstr=3367899",
      "absolute_magnitude_h" : 23.6,
      "estimated_diameter" : {
        "kilometers" : {
          "estimated_diameter_min" : 0.0506471459,
          "estimated_diameter_max" : 0.1132504611
        },
        "meters" : {
          "estimated_diameter_min" : 50.6471458835,
          "estimated_diameter_max" : 113.2504610618
        },
        "miles" : {
          "estimated_diameter_min" : 0.0314706677,
          "estimated_diameter_max" : 0.0703705522
        },
        "feet" : {
          "estimated_diameter_min" : 166.1651821003,
          "estimated_diameter_max" : 371.5566426699
        }
      },
      "is_potentially_hazardous_asteroid" : false,
      "close_approach_data" : [ {
        "close_approach_date" : "2011-02-08",
        "epoch_date_close_approach" : 1297152000000,
        "relative_velocity" : {
          "kilometers_per_second" : "17.8645032847",
          "kilometers_per_hour" : "64312.2118249657",
          "miles_per_hour" : "39961.1073975738"
        },
        "miss_distance" : {
          "astronomical" : "0.3381887111",
          "lunar" : "131.5554046631",
          "kilometers" : "50592312",
          "miles" : "31436604"
        },
        "orbiting_body" : "Earth"
      } ],
      "orbital_data" : {
        "orbit_id" : "10",
        "orbit_determination_date" : "2017-04-06 09:07:03",
        "orbit_uncertainty" : "7",
        "minimum_orbit_intersection" : ".0779894",
        "jupiter_tisserand_invariant" : "4.248",
        "epoch_osculation" : "2458000.5",
        "eccentricity" : ".3959393678302442",
        "semi_major_axis" : "1.601507709751059",
        "inclination" : "11.41076494771133",
        "ascending_node_longitude" : "316.565456640476",
        "orbital_period" : "740.2731156028121",
        "perihelion_distance" : ".9674077595769626",
        "perihelion_argument" : "123.5107526656295",
        "aphelion_distance" : "2.235607659925156",
        "perihelion_time" : "2457786.962851359103",
        "mean_anomaly" : "103.8446107125263",
        "mean_motion" : ".4863070026619138",
        "equinox" : "J2000"
      }
    }, {
      "links" : {
        "self" : "https://api.nasa.gov/neo/rest/v1/neo/3666733?api_key=t0TVs3DtDT2H8Oy2Zy8m2eVrNsAVKAexjcZXUckd"
      },
      "neo_reference_id" : "3666733",
      "name" : "(2014 FA44)",
      "nasa_jpl_url" : "http://ssd.jpl.nasa.gov/sbdb.cgi?sstr=3666733",
      "absolute_magnitude_h" : 24.8,
      "estimated_diameter" : {
        "kilometers" : {
          "estimated_diameter_min" : 0.0291443905,
          "estimated_diameter_max" : 0.0651688382
        },
        "meters" : {
          "estimated_diameter_min" : 29.1443904535,
          "estimated_diameter_max" : 65.1688382168
        },
        "miles" : {
          "estimated_diameter_min" : 0.018109479,
          "estimated_diameter_max" : 0.0404940262
        },
        "feet" : {
          "estimated_diameter_min" : 95.6180819754,
          "estimated_diameter_max" : 213.8085311752
        }
      },
      "is_potentially_hazardous_asteroid" : false,
      "close_approach_data" : [ {
        "close_approach_date" : "2011-02-08",
        "epoch_date_close_approach" : 1297152000000,
        "relative_velocity" : {
          "kilometers_per_second" : "4.7288494257",
          "kilometers_per_hour" : "17023.8579325538",
          "miles_per_hour" : "10577.9632803694"
        },
        "miss_distance" : {
          "astronomical" : "0.3415432033",
          "lunar" : "132.8603057861",
          "kilometers" : "51094136",
          "miles" : "31748424"
        },
        "orbiting_body" : "Earth"
      } ],
      "orbital_data" : {
        "orbit_id" : "29",
        "orbit_determination_date" : "2017-04-06 08:41:50",
        "orbit_uncertainty" : "5",
        "minimum_orbit_intersection" : ".0378689",
        "jupiter_tisserand_invariant" : "5.004",
        "epoch_osculation" : "2458000.5",
        "eccentricity" : ".1889226522509931",
        "semi_major_axis" : "1.292702072996871",
        "inclination" : ".9766283120282108",
        "ascending_node_longitude" : "45.26691335656935",
        "orbital_period" : "536.8415167885923",
        "perihelion_distance" : "1.048481368795945",
        "perihelion_argument" : "190.6591072492211",
        "aphelion_distance" : "1.536922777197796",
        "perihelion_time" : "2457869.144418924851",
        "mean_anomaly" : "88.08560386672828",
        "mean_motion" : ".6705889703790694",
        "equinox" : "J2000"
      }
    }, {
      "links" : {
        "self" : "https://api.nasa.gov/neo/rest/v1/neo/3759724?api_key=t0TVs3DtDT2H8Oy2Zy8m2eVrNsAVKAexjcZXUckd"
      },
      "neo_reference_id" : "3759724",
      "name" : "(2016 SA2)",
      "nasa_jpl_url" : "http://ssd.jpl.nasa.gov/sbdb.cgi?sstr=3759724",
      "absolute_magnitude_h" : 28.2,
      "estimated_diameter" : {
        "kilometers" : {
          "estimated_diameter_min" : 0.0060891262,
          "estimated_diameter_max" : 0.0136157002
        },
        "meters" : {
          "estimated_diameter_min" : 6.0891262211,
          "estimated_diameter_max" : 13.6157001539
        },
        "miles" : {
          "estimated_diameter_min" : 0.0037836064,
          "estimated_diameter_max" : 0.0084604012
        },
        "feet" : {
          "estimated_diameter_min" : 19.9774488711,
          "estimated_diameter_max" : 44.6709336928
        }
      },
      "is_potentially_hazardous_asteroid" : false,
      "close_approach_data" : [ {
        "close_approach_date" : "2011-02-08",
        "epoch_date_close_approach" : 1297152000000,
        "relative_velocity" : {
          "kilometers_per_second" : "7.0234714204",
          "kilometers_per_hour" : "25284.497113311",
          "miles_per_hour" : "15710.8032202126"
        },
        "miss_distance" : {
          "astronomical" : "0.3669637045",
          "lunar" : "142.7488861084",
          "kilometers" : "54896992",
          "miles" : "34111408"
        },
        "orbiting_body" : "Earth"
      } ],
      "orbital_data" : {
        "orbit_id" : "12",
        "orbit_determination_date" : "2017-04-06 08:23:41",
        "orbit_uncertainty" : "5",
        "minimum_orbit_intersection" : ".0018167",
        "jupiter_tisserand_invariant" : "5.355",
        "epoch_osculation" : "2458000.5",
        "eccentricity" : ".1847336609298288",
        "semi_major_axis" : "1.176369255112929",
        "inclination" : "4.763240378523409",
        "ascending_node_longitude" : "183.0603731076065",
        "orbital_period" : "466.0300541787257",
        "perihelion_distance" : ".9590542560106218",
        "perihelion_argument" : "134.5497635689711",
        "aphelion_distance" : "1.393684254215236",
        "perihelion_time" : "2458082.406346705559",
        "mean_anomaly" : "296.7287913094698",
        "mean_motion" : ".7724823684052308",
        "equinox" : "J2000"
      }
    } ]
  }
}